{
  "type": "FeatureCollection",
  "features": [
    {
      "type": "Feature",
      "properties": {
        "norad_id": 33376,
        "name": "GALAXY 19 (G-19)",
        "group": "intelsat",
        "lat": -0.036520328361777515,
        "lon": -91.7821484086284,
        "alt_km": 35775.7794997715,
        "timestamp": "2025-12-13T18:50:04.096072+00:00",
        "meta_object_name": "GALAXY 19 (G-19)",
        "meta_object_id": "2008-045A",
        "meta_epoch": "2025-12-13T07:50:11.684832",
        "meta_mean_motion": 1.00269797,
        "meta_eccentricity": 0.00025734,
        "meta_inclination": 0.0188,
        "meta_ra_of_asc_node": 359.1816,
        "meta_arg_of_pericenter": 266.4314,
        "meta_mean_anomaly": 197.195,
        "meta_ephemeris_type": 0,
        "meta_classification_type": "U",
        "meta_norad_cat_id": 33376,
        "meta_element_set_no": 999,
        "meta_rev_at_epoch": 6304,
        "meta_bstar": 0,
        "meta_mean_motion_dot": 0,
        "meta_mean_motion_ddot": 0,
        "tle_line1": "1 33376U 08045A   25347.32652413  .00000000  00000+0  00000+0 0  9994",
        "tle_line2": "2 33376   0.0188 359.1816 0002573 266.4314 197.1950  1.00269797 63043"
      },
      "geometry": {
        "type": "Point",
        "coordinates": [
          -91.7821484086284,
          -0.036520328361777515
        ]
      }
    },
    {
      "type": "Feature",
      "properties": {
        "norad_id": 35493,
        "name": "FM-5",
        "group": "intelsat",
        "lat": -0.014875944240487476,
        "lon": -80.91417359290548,
        "alt_km": 35787.53258151146,
        "timestamp": "2025-12-13T18:50:04.096084+00:00",
        "meta_object_name": "FM-5",
        "meta_object_id": "2009-034A",
        "meta_epoch": "2025-12-13T04:28:45.829056",
        "meta_mean_motion": 1.00271954,
        "meta_eccentricity": 7.249e-05,
        "meta_inclination": 0.0178,
        "meta_ra_of_asc_node": 291.2415,
        "meta_arg_of_pericenter": 229.2636,
        "meta_mean_anomaly": 262.6658,
        "meta_ephemeris_type": 0,
        "meta_classification_type": "U",
        "meta_norad_cat_id": 35493,
        "meta_element_set_no": 999,
        "meta_rev_at_epoch": 4477,
        "meta_bstar": 0,
        "meta_mean_motion_dot": -1.87e-06,
        "meta_mean_motion_ddot": 0,
        "tle_line1": "1 35493U 09034A   25347.18664154 -.00000187  00000+0  00000+0 0  9991",
        "tle_line2": "2 35493   0.0178 291.2415 0000724 229.2636 262.6658  1.00271954 44775"
      },
      "geometry": {
        "type": "Point",
        "coordinates": [
          -80.91417359290548,
          -0.014875944240487476
        ]
      }
    },
    {
      "type": "Feature",
      "properties": {
        "norad_id": 36097,
        "name": "INTELSAT 14 (IS-14)",
        "group": "intelsat",
        "lat": -0.02018693234856658,
        "lon": -39.74923621106563,
        "alt_km": 35779.75344522607,
        "timestamp": "2025-12-13T18:50:04.096103+00:00",
        "meta_object_name": "INTELSAT 14 (IS-14)",
        "meta_object_id": "2009-064A",
        "meta_epoch": "2025-12-13T04:39:38.675232",
        "meta_mean_motion": 1.00272208,
        "meta_eccentricity": 0.00024696,
        "meta_inclination": 0.0167,
        "meta_ra_of_asc_node": 36.0449,
        "meta_arg_of_pericenter": 231.1806,
        "meta_mean_anomaly": 199.822,
        "meta_ephemeris_type": 0,
        "meta_classification_type": "U",
        "meta_norad_cat_id": 36097,
        "meta_element_set_no": 999,
        "meta_rev_at_epoch": 5874,
        "meta_bstar": 0,
        "meta_mean_motion_dot": -2.6e-06,
        "meta_mean_motion_ddot": 0,
        "tle_line1": "1 36097U 09064A   25347.19419763 -.00000260  00000+0  00000+0 0  9992",
        "tle_line2": "2 36097   0.0167  36.0449 0002469 231.1806 199.8220  1.00272208 58746"
      },
      "geometry": {
        "type": "Point",
        "coordinates": [
          -39.74923621106563,
          -0.02018693234856658
        ]
      }
    },
    {
      "type": "Feature",
      "properties": {
        "norad_id": 36106,
        "name": "INTELSAT 15 (IS-15)",
        "group": "intelsat",
        "lat": 0.020975192055764764,
        "lon": 90.37497141453363,
        "alt_km": 35795.74724058994,
        "timestamp": "2025-12-13T18:50:04.096116+00:00",
        "meta_object_name": "INTELSAT 15 (IS-15)",
        "meta_object_id": "2009-067A",
        "meta_epoch": "2025-12-13T01:40:38.603136",
        "meta_mean_motion": 1.00272274,
        "meta_eccentricity": 0.0002307,
        "meta_inclination": 0.0184,
        "meta_ra_of_asc_node": 296.0839,
        "meta_arg_of_pericenter": 333.9454,
        "meta_mean_anomaly": 282.2921,
        "meta_ephemeris_type": 0,
        "meta_classification_type": "U",
        "meta_norad_cat_id": 36106,
        "meta_element_set_no": 999,
        "meta_rev_at_epoch": 3936,
        "meta_bstar": 0,
        "meta_mean_motion_dot": -1.72e-06,
        "meta_mean_motion_ddot": 0,
        "tle_line1": "1 36106U 09067A   25347.06989124 -.00000172  00000+0  00000+0 0  9997",
        "tle_line2": "2 36106   0.0184 296.0839 0002307 333.9454 282.2921  1.00272274 39363"
      },
      "geometry": {
        "type": "Point",
        "coordinates": [
          90.37497141453363,
          0.020975192055764764
        ]
      }
    },
    {
      "type": "Feature",
      "properties": {
        "norad_id": 36131,
        "name": "DIRECTV 12",
        "group": "intelsat",
        "lat": 0.00043038019994480036,
        "lon": -97.4991181321288,
        "alt_km": 35785.964855979444,
        "timestamp": "2025-12-13T18:50:04.096128+00:00",
        "meta_object_name": "DIRECTV 12",
        "meta_object_id": "2009-075A",
        "meta_epoch": "2025-12-12T21:33:07.379712",
        "meta_mean_motion": 1.00272368,
        "meta_eccentricity": 5.628e-05,
        "meta_inclination": 0.0421,
        "meta_ra_of_asc_node": 134.0274,
        "meta_arg_of_pericenter": 219.2719,
        "meta_mean_anomaly": 309.1038,
        "meta_ephemeris_type": 0,
        "meta_classification_type": "U",
        "meta_norad_cat_id": 36131,
        "meta_element_set_no": 999,
        "meta_rev_at_epoch": 4468,
        "meta_bstar": 0,
        "meta_mean_motion_dot": -9.1e-07,
        "meta_mean_motion_ddot": 0,
        "tle_line1": "1 36131U 09075A   25346.89800208 -.00000091  00000+0  00000+0 0  9999",
        "tle_line2": "2 36131   0.0421 134.0274 0000562 219.2719 309.1038  1.00272368 44683"
      },
      "geometry": {
        "type": "Point",
        "coordinates": [
          -97.4991181321288,
          0.00043038019994480036
        ]
      }
    },
    {
      "type": "Feature",
      "properties": {
        "norad_id": 36397,
        "name": "INTELSAT 16 (IS-16)",
        "group": "intelsat",
        "lat": -0.018755923121538752,
        "lon": -70.96335587691372,
        "alt_km": 35778.177053319545,
        "timestamp": "2025-12-13T18:50:04.096140+00:00",
        "meta_object_name": "INTELSAT 16 (IS-16)",
        "meta_object_id": "2010-006A",
        "meta_epoch": "2025-12-13T04:31:38.053632",
        "meta_mean_motion": 1.00272066,
        "meta_eccentricity": 0.00020463,
        "meta_inclination": 0.0072,
        "meta_ra_of_asc_node": 334.0482,
        "meta_arg_of_pericenter": 290.5684,
        "meta_mean_anomaly": 169.222,
        "meta_ephemeris_type": 0,
        "meta_classification_type": "U",
        "meta_norad_cat_id": 36397,
        "meta_element_set_no": 999,
        "meta_rev_at_epoch": 5778,
        "meta_bstar": 0,
        "meta_mean_motion_dot": -2.31e-06,
        "meta_mean_motion_ddot": 0,
        "tle_line1": "1 36397U 10006A   25347.18863488 -.00000231  00000+0  00000+0 0  9997",
        "tle_line2": "2 36397   0.0072 334.0482 0002046 290.5684 169.2220  1.00272066 57782"
      },
      "geometry": {
        "type": "Point",
        "coordinates": [
          -70.96335587691372,
          -0.018755923121538752
        ]
      }
    },
    {
      "type": "Feature",
      "properties": {
        "norad_id": 37185,
        "name": "XM-5",
        "group": "intelsat",
        "lat": -0.040337461582601666,
        "lon": -109.95019274402325,
        "alt_km": 35787.27964074109,
        "timestamp": "2025-12-13T18:50:04.096152+00:00",
        "meta_object_name": "XM-5",
        "meta_object_id": "2010-053A",
        "meta_epoch": "2025-12-13T05:16:17.710752",
        "meta_mean_motion": 1.00272711,
        "meta_eccentricity": 0.00016612,
        "meta_inclination": 0.0611,
        "meta_ra_of_asc_node": 273.0453,
        "meta_arg_of_pericenter": 234.9658,
        "meta_mean_anomaly": 258.0262,
        "meta_ephemeris_type": 0,
        "meta_classification_type": "U",
        "meta_norad_cat_id": 37185,
        "meta_element_set_no": 999,
        "meta_rev_at_epoch": 5561,
        "meta_bstar": 0,
        "meta_mean_motion_dot": -1e-07,
        "meta_mean_motion_ddot": 0,
        "tle_line1": "1 37185U 10053A   25347.21964943 -.00000010  00000+0  00000+0 0  9992",
        "tle_line2": "2 37185   0.0611 273.0453 0001661 234.9658 258.0262  1.00272711 55612"
      },
      "geometry": {
        "type": "Point",
        "coordinates": [
          -109.95019274402325,
          -0.040337461582601666
        ]
      }
    }
  ]
}